NORAD_CAT_ID,OBJECT_NAME,OBJECT_TYPE,EPOCH,MEAN_MOTION,ECCENTRICITY,INCLINATION,RA_OF_ASC_NODE,ARG_OF_PERICENTER,MEAN_ANOMALY,BSTAR,MEAN_MOTION_DOT,MEAN_MOTION_DDOT,TLE_LINE0,TLE_LINE1,TLE_LINE2,SEMIMAJOR_AXIS,PERIOD,APOGEE,PERIGEE,DECAYED
52561.0,STARLINK-3955,PAYLOAD,2023-05-27 20:17:23,15.08829714,9.01e-05,53.2188,18.9093,104.7562,255.353,0.00032298,4.855e-05,0.0,0 STARLINK-3955,1 52561U 22051AE  23147.84540820  .00004855  00000-0  32298-3 0  9996,2 52561  53.2188  18.9093 0000901 104.7562 255.3530 15.08829714 57935,6917.912,95.438,540.4,539.154,0.0
52561.0,STARLINK-3955,PAYLOAD,2023-05-27 21:52:45,15.08855779,9.62e-05,53.2187,18.6117,89.8037,270.3065,-2.8192e-05,-7.37e-06,0.0,0 STARLINK-3955,1 52561U 22051AE  23147.91164276 -.00000737  00000-0 -28192-4 0  9997,2 52561  53.2187  18.6117 0000962  89.8037 270.3065 15.08855779 57878,6917.832,95.437,540.363,539.032,0.0
52561.0,STARLINK-3955,PAYLOAD,2023-05-28 20:08:10,15.08843705,8.92e-05,53.2185,14.4486,85.2379,274.8715,0.00011653,1.568e-05,0.0,0 STARLINK-3955,1 52561U 22051AE  23148.83900642  .00001568  00000-0  11653-3 0  9998,2 52561  53.2185  14.4486 0000892  85.2379 274.8715 15.08843705 58081,6917.869,95.437,540.351,539.117,0.0
52561.0,STARLINK-3955,PAYLOAD,2023-05-28 21:43:33,15.08844231,8.86e-05,53.2185,14.1514,83.958,276.1513,0.00012027,1.627e-05,0.0,0 STARLINK-3955,1 52561U 22051AE  23148.90524593  .00001627  00000-0  12027-3 0  9995,2 52561  53.2185  14.1514 0000886  83.9580 276.1513 15.08844231 58022,6917.867,95.437,540.345,539.12,0.0
52561.0,STARLINK-3955,PAYLOAD,2023-05-29 21:34:20,15.08838812,9.36e-05,53.2185,9.6905,87.0494,273.0605,9.4298e-06,-1.38e-06,0.0,0 STARLINK-3955,1 52561U 22051AE  23149.89885205 -.00000138  00000-0  94298-5 0  9993,2 52561  53.2185   9.6905 0000936  87.0494 273.0605 15.08838812 58172,6917.884,95.438,540.397,539.102,0.0
52561.0,STARLINK-3955,PAYLOAD,2023-05-30 00:45:07,15.08838488,9.31e-05,53.2186,9.0959,85.7563,274.3536,-1.2529e-05,-4.87e-06,0.0,0 STARLINK-3955,1 52561U 22051AE  23150.03133262 -.00000487  00000-0 -12529-4 0  9994,2 52561  53.2186   9.0959 0000931  85.7563 274.3536 15.08838488 58269,6917.885,95.438,540.394,539.106,0.0
52561.0,STARLINK-3955,PAYLOAD,2023-05-30 21:25:07,15.08844805,9.25e-05,53.2186,5.2313,87.8992,272.2107,-1.1655e-05,-4.73e-06,0.0,0 STARLINK-3955,1 52561U 22051AE  23150.89244981 -.00000473  00000-0 -11655-4 0  9993,2 52561  53.2186   5.2313 0000925  87.8992 272.2107 15.08844805 58321,6917.866,95.437,540.371,539.091,0.0
52561.0,STARLINK-3955,PAYLOAD,2023-05-31 13:18:59,15.08835292,9.62e-05,53.2182,2.2589,98.6406,261.4695,0.00010021,1.307e-05,0.0,0 STARLINK-3955,1 52561U 22051AE  23151.55485391  .00001307  00000-0  10021-3 0  9999,2 52561  53.2182   2.2589 0000962  98.6406 261.4695 15.08835292 58423,6917.895,95.438,540.425,539.094,0.0
52561.0,STARLINK-3955,PAYLOAD,2023-05-31 18:05:08,15.08835761,9.36e-05,53.2181,1.3664,95.6931,264.4168,6.5556e-05,7.56e-06,0.0,0 STARLINK-3955,1 52561U 22051AE  23151.75357549  .00000756  00000-0  65556-4 0  9995,2 52561  53.2181   1.3664 0000936  95.6931 264.4168 15.08835761 58527,6917.893,95.438,540.406,539.111,0.0
52561.0,STARLINK-3955,PAYLOAD,2023-05-31 21:15:55,15.08838187,9.23e-05,53.2178,0.7716,95.2768,264.833,8.3412e-05,1.04e-05,0.0,0 STARLINK-3955,1 52561U 22051AE  23151.88605372  .00001040  00000-0  83412-4 0  9997,2 52561  53.2178   0.7716 0000923  95.2768 264.8330 15.08838187 58478,6917.886,95.438,540.389,539.112,0.0
52561.0,STARLINK-3955,PAYLOAD,2023-06-01 06:48:13,15.08839615,8.54e-05,53.2174,358.9861,83.9319,276.177,9.0565e-05,1.154e-05,0.0,0 STARLINK-3955,1 52561U 22051AE  23152.28349321  .00001154  00000-0  90565-4 0  9994,2 52561  53.2174 358.9861 0000854  83.9319 276.1770 15.08839615 58530,6917.882,95.438,540.337,539.156,0.0
52561.0,STARLINK-3955,PAYLOAD,2023-06-01 16:20:33,15.08825575,0.0001214,53.2184,357.2025,114.4041,245.7078,0.00015397,2.162e-05,0.0,0 STARLINK-3955,1 52561U 22051AE  23152.68093977  .00002162  00000-0  15397-3 0  9990,2 52561  53.2184 357.2025 0001214 114.4041 245.7078 15.08825575 58665,6917.924,95.438,540.629,538.95,0.0
52561.0,STARLINK-3955,PAYLOAD,2023-06-02 19:22:06,15.08839286,8.59e-05,53.2185,352.1492,93.1733,266.9357,8.903e-05,1.129e-05,0.0,0 STARLINK-3955,1 52561U 22051AE  23153.80701677  .00001129  00000-0  89030-4 0  9996,2 52561  53.2185 352.1492 0000859  93.1733 266.9357 15.08839286 58831,6917.883,95.438,540.342,539.153,0.0
52561.0,STARLINK-3955,PAYLOAD,2023-06-02 20:57:29,15.08836121,0.0001021,53.2182,351.8505,89.8611,270.2499,0.00015967,2.254e-05,0.0,0 STARLINK-3955,1 52561U 22051AE  23153.87325738  .00002254  00000-0  15967-3 0  9990,2 52561  53.2182 351.8505 0001021  89.8611 270.2499 15.08836121 58771,6917.892,95.438,540.464,539.051,0.0
52561.0,STARLINK-3955,PAYLOAD,2023-06-03 12:51:20,15.08838808,9.5e-05,53.2179,348.8786,81.2586,278.8514,8.7489e-05,1.105e-05,0.0,0 STARLINK-3955,1 52561U 22051AE  23154.53565749  .00001105  00000-0  87489-4 0  9995,2 52561  53.2179 348.8786 0000950  81.2586 278.8514 15.08838808 58878,6917.884,95.438,540.406,539.092,0.0
52561.0,STARLINK-3955,PAYLOAD,2023-06-03 19:12:53,15.0884015,9.46e-05,53.2178,347.689,82.9413,277.1686,0.00010134,1.325e-05,0.0,0 STARLINK-3955,1 52561U 22051AE  23154.80061655  .00001325  00000-0  10134-3 0  9998,2 52561  53.2178 347.6890 0000946  82.9413 277.1686 15.08840150 58912,6917.88,95.438,540.399,539.09,0.0
52561.0,STARLINK-3955,PAYLOAD,2023-06-03 23:59:02,15.0884826,0.000104,53.2181,346.7956,89.5937,270.5175,0.00013203,1.815e-05,0.0,0 STARLINK-3955,1 52561U 22051AE  23154.99933013  .00001815  00000-0  13203-3 0  9998,2 52561  53.2181 346.7956 0001040  89.5937 270.5175 15.08848260 59011,6917.855,95.437,540.44,539.001,0.0
52561.0,STARLINK-3955,PAYLOAD,2023-06-04 19:03:40,15.08842913,0.0001022,53.2179,343.2275,94.2304,265.8805,6.9894e-05,8.25e-06,0.0,0 STARLINK-3955,1 52561U 22051AE  23155.79421479  .00000825  00000-0  69894-4 0  9993,2 52561  53.2179 343.2275 0001022  94.2304 265.8805 15.08842913 59134,6917.871,95.437,540.443,539.029,0.0
52561.0,STARLINK-3955,PAYLOAD,2023-06-04 22:14:26,15.08845173,0.0001035,53.2179,342.6321,95.7313,264.3797,8.9516e-05,1.137e-05,0.0,0 STARLINK-3955,1 52561U 22051AE  23155.92669254  .00001137  00000-0  89516-4 0  9993,2 52561  53.2179 342.6321 0001035  95.7313 264.3797 15.08845173 59088,6917.865,95.437,540.446,539.014,0.0
52561.0,STARLINK-3955,PAYLOAD,2023-06-05 18:54:27,15.08845818,0.000107,53.2183,338.7654,89.1877,270.9238,4.1874e-05,3.79e-06,0.0,0 STARLINK-3955,1 52561U 22051AE  23156.78781338  .00000379  00000-0  41874-4 0  9998,2 52561  53.2183 338.7654 0001070  89.1877 270.9238 15.08845818 59213,6917.863,95.437,540.468,538.987,0.0
52561.0,STARLINK-3955,PAYLOAD,2023-06-05 23:40:36,15.08848755,0.0001001,53.2176,337.8753,85.3492,274.7615,9.8411e-05,1.279e-05,0.0,0 STARLINK-3955,1 52561U 22051AE  23156.98652979  .00001279  00000-0  98411-4 0  9997,2 52561  53.2176 337.8753 0001001  85.3492 274.7615 15.08848755 59315,6917.854,95.437,540.411,539.026,0.0
52561.0,STARLINK-3955,PAYLOAD,2023-06-06 12:23:42,15.08835119,0.0001365,53.2176,335.495,103.1547,256.9597,4.327e-05,4.01e-06,0.0,0 STARLINK-3955,1 52561U 22051AE  23157.51646054  .00000401  00000-0  43270-4 0  9993,2 52561  53.2176 335.4950 0001365 103.1547 256.9597 15.08835119 59323,6917.895,95.438,540.705,538.816,0.0
52561.0,STARLINK-3955,PAYLOAD,2023-06-06 15:34:28,15.08838313,0.0001154,53.2185,334.9012,100.4367,259.6755,-9.7423e-06,-4.43e-06,0.0,0 STARLINK-3955,1 52561U 22051AE  23157.64894017 -.00000443  00000-0 -97423-5 0  9999,2 52561  53.2185 334.9012 0001154 100.4367 259.6755 15.08838313 59417,6917.886,95.438,540.549,538.952,0.0
52561.0,STARLINK-3955,PAYLOAD,2023-06-07 12:14:29,15.08838014,0.0001034,53.2183,331.0373,85.8952,274.2159,1.2326e-05,-9.2e-07,0.0,0 STARLINK-3955,1 52561U 22051AE  23158.51006282 -.00000092  00000-0  12326-4 0  9992,2 52561  53.2183 331.0373 0001034  85.8952 274.2159 15.08838014 59471,6917.886,95.438,540.467,539.036,0.0
52561.0,STARLINK-3955,PAYLOAD,2023-06-07 18:36:01,15.08842552,0.0001053,53.2183,329.8481,86.5445,273.5668,5.2407e-05,5.46e-06,0.0,0 STARLINK-3955,1 52561U 22051AE  23158.77501915  .00000546  00000-0  52407-4 0  9990,2 52561  53.2183 329.8481 0001053  86.5445 273.5668 15.08842552 59583,6917.873,95.437,540.466,539.009,0.0
52561.0,STARLINK-3955,PAYLOAD,2023-06-07 20:11:24,15.08844441,0.000104,53.2178,329.5498,83.9357,276.1754,5.9728e-05,6.63e-06,0.0,0 STARLINK-3955,1 52561U 22051AE  23158.84125793  .00000663  00000-0  59728-4 0  9997,2 52561  53.2178 329.5498 0001040  83.9357 276.1754 15.08844441 59529,6917.867,95.437,540.451,539.012,0.0
52561.0,STARLINK-3955,PAYLOAD,2023-06-08 12:05:16,15.0883178,0.0001071,53.218,326.577,85.1604,274.9511,9.0494e-05,1.152e-05,0.0,0 STARLINK-3955,1 52561U 22051AE  23159.50366714  .00001152  00000-0  90494-4 0  9990,2 52561  53.2180 326.5770 0001071  85.1604 274.9511 15.08831780 59625,6917.906,95.438,540.511,539.03,0.0
52561.0,STARLINK-3955,PAYLOAD,2023-06-08 18:26:48,15.08840773,0.0001055,53.219,325.3888,88.6248,271.4865,0.00012852,1.758e-05,0.0,0 STARLINK-3955,1 52561U 22051AE  23159.76862146  .00001758  00000-0  12852-3 0  9991,2 52561  53.2190 325.3888 0001055  88.6248 271.4865 15.08840773 59735,6917.878,95.438,540.473,539.013,0.0
52561.0,STARLINK-3955,PAYLOAD,2023-06-09 03:59:07,15.08838942,0.0001042,53.218,323.6018,88.3183,271.7928,7.5313e-05,9.11e-06,0.0,0 STARLINK-3955,1 52561U 22051AE  23160.16606401  .00000911  00000-0  75313-4 0  9999,2 52561  53.2180 323.6018 0001042  88.3183 271.7928 15.08838942 59728,6917.884,95.438,540.469,539.028,0.0
52561.0,STARLINK-3955,PAYLOAD,2023-06-09 16:42:13,15.08839799,0.0001055,53.2181,321.2236,93.23,266.8813,3.9196e-05,3.36e-06,0.0,0 STARLINK-3955,1 52561U 22051AE  23160.69598556  .00000336  00000-0  39196-4 0  9998,2 52561  53.2181 321.2236 0001055  93.2300 266.8813 15.08839799 59803,6917.881,95.438,540.476,539.016,0.0
